[
  {
    "OBJECT_NAME": "STARLINK-31899",
    "OBJECT_ID": "24097R",
    "EPOCH": "2025-11-11T02:50:14.492256",
    "MEAN_MOTION": 15.27564072,
    "ECCENTRICITY": 0.0001232,
    "INCLINATION": 43.0013,
    "RA_OF_ASC_NODE": 223.9185,
    "ARG_OF_PERICENTER": 275.0111,
    "MEAN_ANOMALY": 85.06,
    "EPHEMERIS_TYPE": 0,
    "CLASSIFICATION_TYPE": "U",
    "NORAD_CAT_ID": 59850,
    "ELEMENT_SET_NO": 999,
    "REV_AT_EPOCH": 8378,
    "BSTAR": 0.0,
    "MEAN_MOTION_DOT": -0.00011171,
    "MEAN_MOTION_DDOT": 0.0,
    "TLE_LINE1": "1 59850U 24097R   25315.11822329 -.00011171  00000+0 -39722-3 0  9991",
    "TLE_LINE2": "2 59850  43.0013 223.9185 0001232 275.0111  85.0600 15.27564072 83789",
    "COMMENT": "Grouped by shell and plane from TLE"
  },
  {
    "OBJECT_NAME": "STARLINK-31896",
    "OBJECT_ID": "24097S",
    "EPOCH": "2025-11-11T02:55:49.785600",
    "MEAN_MOTION": 15.27558646,
    "ECCENTRICITY": 7.83e-05,
    "INCLINATION": 43.0037,
    "RA_OF_ASC_NODE": 223.9493,
    "ARG_OF_PERICENTER": 247.809,
    "MEAN_ANOMALY": 112.2679,
    "EPHEMERIS_TYPE": 0,
    "CLASSIFICATION_TYPE": "U",
    "NORAD_CAT_ID": 59851,
    "ELEMENT_SET_NO": 999,
    "REV_AT_EPOCH": 8378,
    "BSTAR": 5.719e-05,
    "MEAN_MOTION_DOT": 1.311e-05,
    "MEAN_MOTION_DDOT": 0.0,
    "TLE_LINE1": "1 59851U 24097S   25315.12210400  .00001311  00000+0  57190-4 0  9997",
    "TLE_LINE2": "2 59851  43.0037 223.9493 0000783 247.8090 112.2679 15.27558646 83780",
    "COMMENT": "Grouped by shell and plane from TLE"
  },
  {
    "OBJECT_NAME": "STARLINK-31892",
    "OBJECT_ID": "24097U",
    "EPOCH": "2025-11-11T03:21:41.596128",
    "MEAN_MOTION": 15.27597698,
    "ECCENTRICITY": 0.0001061,
    "INCLINATION": 43.0007,
    "RA_OF_ASC_NODE": 224.088,
    "ARG_OF_PERICENTER": 274.8483,
    "MEAN_ANOMALY": 85.2247,
    "EPHEMERIS_TYPE": 0,
    "CLASSIFICATION_TYPE": "U",
    "NORAD_CAT_ID": 59853,
    "ELEMENT_SET_NO": 999,
    "REV_AT_EPOCH": 8378,
    "BSTAR": 0.00010917,
    "MEAN_MOTION_DOT": 2.745e-05,
    "MEAN_MOTION_DDOT": 0.0,
    "TLE_LINE1": "1 59853U 24097U   25315.14006477  .00002745  00000+0  10917-3 0  9995",
    "TLE_LINE2": "2 59853  43.0007 224.0880 0001061 274.8483  85.2247 15.27597698 83787",
    "COMMENT": "Grouped by shell and plane from TLE"
  },
  {
    "OBJECT_NAME": "STARLINK-31891",
    "OBJECT_ID": "24097V",
    "EPOCH": "2025-11-11T03:27:14.412384",
    "MEAN_MOTION": 15.27597608,
    "ECCENTRICITY": 7.22e-05,
    "INCLINATION": 43.0035,
    "RA_OF_ASC_NODE": 224.1168,
    "ARG_OF_PERICENTER": 273.6467,
    "MEAN_ANOMALY": 86.4302,
    "EPHEMERIS_TYPE": 0,
    "CLASSIFICATION_TYPE": "U",
    "NORAD_CAT_ID": 59854,
    "ELEMENT_SET_NO": 999,
    "REV_AT_EPOCH": 8378,
    "BSTAR": 0.0001574,
    "MEAN_MOTION_DOT": 4.074e-05,
    "MEAN_MOTION_DDOT": 0.0,
    "TLE_LINE1": "1 59854U 24097V   25315.14391681  .00004074  00000+0  15740-3 0  9996",
    "TLE_LINE2": "2 59854  43.0035 224.1168 0000722 273.6467  86.4302 15.27597608 83787",
    "COMMENT": "Grouped by shell and plane from TLE"
  },
  {
    "OBJECT_NAME": "STARLINK-31691",
    "OBJECT_ID": "24097X",
    "EPOCH": "2025-11-11T03:47:23.184672",
    "MEAN_MOTION": 15.27606765,
    "ECCENTRICITY": 0.0001907,
    "INCLINATION": 42.9995,
    "RA_OF_ASC_NODE": 223.3502,
    "ARG_OF_PERICENTER": 274.5602,
    "MEAN_ANOMALY": 85.5032,
    "EPHEMERIS_TYPE": 0,
    "CLASSIFICATION_TYPE": "U",
    "NORAD_CAT_ID": 59856,
    "ELEMENT_SET_NO": 999,
    "REV_AT_EPOCH": 8379,
    "BSTAR": 0.00034593000000000004,
    "MEAN_MOTION_DOT": 9.277e-05,
    "MEAN_MOTION_DDOT": 0.0,
    "TLE_LINE1": "1 59856U 24097X   25315.15790723  .00009277  00000+0  34593-3 0  9996",
    "TLE_LINE2": "2 59856  42.9995 223.3502 0001907 274.5602  85.5032 15.27606765 83798",
    "COMMENT": "Grouped by shell and plane from TLE"
  },
  {
    "OBJECT_NAME": "STARLINK-31569",
    "OBJECT_ID": "24097Y",
    "EPOCH": "2025-11-11T03:05:02.588352",
    "MEAN_MOTION": 15.27606446,
    "ECCENTRICITY": 9.29e-05,
    "INCLINATION": 43.0005,
    "RA_OF_ASC_NODE": 223.9988,
    "ARG_OF_PERICENTER": 269.8665,
    "MEAN_ANOMALY": 90.208,
    "EPHEMERIS_TYPE": 0,
    "CLASSIFICATION_TYPE": "U",
    "NORAD_CAT_ID": 59857,
    "ELEMENT_SET_NO": 999,
    "REV_AT_EPOCH": 8378,
    "BSTAR": 0.00023978,
    "MEAN_MOTION_DOT": 6.347e-05,
    "MEAN_MOTION_DDOT": 0.0,
    "TLE_LINE1": "1 59857U 24097Y   25315.12850218  .00006347  00000+0  23978-3 0  9990",
    "TLE_LINE2": "2 59857  43.0005 223.9988 0000929 269.8665  90.2080 15.27606446 83787",
    "COMMENT": "Grouped by shell and plane from TLE"
  },
  {
    "OBJECT_NAME": "STARLINK-31654",
    "OBJECT_ID": "24098A",
    "EPOCH": "2025-11-11T02:08:24.500544",
    "MEAN_MOTION": 15.27607708,
    "ECCENTRICITY": 0.0001177,
    "INCLINATION": 42.9999,
    "RA_OF_ASC_NODE": 220.3587,
    "ARG_OF_PERICENTER": 280.9222,
    "MEAN_ANOMALY": 79.1497,
    "EPHEMERIS_TYPE": 0,
    "CLASSIFICATION_TYPE": "U",
    "NORAD_CAT_ID": 59858,
    "ELEMENT_SET_NO": 999,
    "REV_AT_EPOCH": 8378,
    "BSTAR": 0.0,
    "MEAN_MOTION_DOT": -5.45e-06,
    "MEAN_MOTION_DDOT": 0.0,
    "TLE_LINE1": "1 59858U 24098A   25315.08917246 -.00000545  00000+0 -10270-4 0  9990",
    "TLE_LINE2": "2 59858  42.9999 220.3587 0001177 280.9222  79.1497 15.27607708 83783",
    "COMMENT": "Grouped by shell and plane from TLE"
  },
  {
    "OBJECT_NAME": "STARLINK-31651",
    "OBJECT_ID": "24098C",
    "EPOCH": "2025-11-11T03:02:32.214336",
    "MEAN_MOTION": 15.27609504,
    "ECCENTRICITY": 0.0001091,
    "INCLINATION": 43.0003,
    "RA_OF_ASC_NODE": 227.5649,
    "ARG_OF_PERICENTER": 252.7931,
    "MEAN_ANOMALY": 107.2801,
    "EPHEMERIS_TYPE": 0,
    "CLASSIFICATION_TYPE": "U",
    "NORAD_CAT_ID": 59860,
    "ELEMENT_SET_NO": 999,
    "REV_AT_EPOCH": 8371,
    "BSTAR": 0.00039272000000000005,
    "MEAN_MOTION_DOT": 0.0001057,
    "MEAN_MOTION_DDOT": 0.0,
    "TLE_LINE1": "1 59860U 24098C   25315.12676174  .00010570  00000+0  39272-3 0  9999",
    "TLE_LINE2": "2 59860  43.0003 227.5649 0001091 252.7931 107.2801 15.27609504 83712",
    "COMMENT": "Grouped by shell and plane from TLE"
  },
  {
    "OBJECT_NAME": "STARLINK-31584",
    "OBJECT_ID": "24098E",
    "EPOCH": "2025-11-11T04:21:52.194240",
    "MEAN_MOTION": 15.27570773,
    "ECCENTRICITY": 8.25e-05,
    "INCLINATION": 43.0001,
    "RA_OF_ASC_NODE": 227.1191,
    "ARG_OF_PERICENTER": 175.8678,
    "MEAN_ANOMALY": 184.218,
    "EPHEMERIS_TYPE": 0,
    "CLASSIFICATION_TYPE": "U",
    "NORAD_CAT_ID": 59862,
    "ELEMENT_SET_NO": 999,
    "REV_AT_EPOCH": 8372,
    "BSTAR": 0.00020726,
    "MEAN_MOTION_DOT": 5.444e-05,
    "MEAN_MOTION_DDOT": 0.0,
    "TLE_LINE1": "1 59862U 24098E   25315.18185410  .00005444  00000+0  20726-3 0  9993",
    "TLE_LINE2": "2 59862  43.0001 227.1191 0000825 175.8678 184.2180 15.27570773 83728",
    "COMMENT": "Grouped by shell and plane from TLE"
  },
  {
    "OBJECT_NAME": "STARLINK-31950",
    "OBJECT_ID": "24098F",
    "EPOCH": "2025-11-11T03:13:37.046784",
    "MEAN_MOTION": 15.27586757,
    "ECCENTRICITY": 0.0001309,
    "INCLINATION": 43.0015,
    "RA_OF_ASC_NODE": 227.6257,
    "ARG_OF_PERICENTER": 265.5455,
    "MEAN_ANOMALY": 94.5247,
    "EPHEMERIS_TYPE": 0,
    "CLASSIFICATION_TYPE": "U",
    "NORAD_CAT_ID": 59863,
    "ELEMENT_SET_NO": 999,
    "REV_AT_EPOCH": 8371,
    "BSTAR": 2.4094e-05,
    "MEAN_MOTION_DOT": 4.01e-06,
    "MEAN_MOTION_DDOT": 0.0,
    "TLE_LINE1": "1 59863U 24098F   25315.13445656  .00000401  00000+0  24094-4 0  9991",
    "TLE_LINE2": "2 59863  43.0015 227.6257 0001309 265.5455  94.5247 15.27586757 83715",
    "COMMENT": "Grouped by shell and plane from TLE"
  },
  {
    "OBJECT_NAME": "STARLINK-31931",
    "OBJECT_ID": "24098G",
    "EPOCH": "2025-11-11T03:39:31.527072",
    "MEAN_MOTION": 15.27585255,
    "ECCENTRICITY": 0.0001428,
    "INCLINATION": 43.0037,
    "RA_OF_ASC_NODE": 227.7569,
    "ARG_OF_PERICENTER": 266.0955,
    "MEAN_ANOMALY": 93.9734,
    "EPHEMERIS_TYPE": 0,
    "CLASSIFICATION_TYPE": "U",
    "NORAD_CAT_ID": 59864,
    "ELEMENT_SET_NO": 999,
    "REV_AT_EPOCH": 8371,
    "BSTAR": 0.00016811999999999998,
    "MEAN_MOTION_DOT": 4.368e-05,
    "MEAN_MOTION_DDOT": 0.0,
    "TLE_LINE1": "1 59864U 24098G   25315.15244823  .00004368  00000+0  16812-3 0  9991",
    "TLE_LINE2": "2 59864  43.0037 227.7569 0001428 266.0955  93.9734 15.27585255 83716",
    "COMMENT": "Grouped by shell and plane from TLE"
  },
  {
    "OBJECT_NAME": "STARLINK-31938",
    "OBJECT_ID": "24098H",
    "EPOCH": "2025-11-11T04:07:04.903392",
    "MEAN_MOTION": 15.27627082,
    "ECCENTRICITY": 0.0001254,
    "INCLINATION": 42.9984,
    "RA_OF_ASC_NODE": 227.038,
    "ARG_OF_PERICENTER": 263.6314,
    "MEAN_ANOMALY": 96.4394,
    "EPHEMERIS_TYPE": 0,
    "CLASSIFICATION_TYPE": "U",
    "NORAD_CAT_ID": 59865,
    "ELEMENT_SET_NO": 999,
    "REV_AT_EPOCH": 8372,
    "BSTAR": 0.0010447,
    "MEAN_MOTION_DOT": 0.0002864,
    "MEAN_MOTION_DDOT": 0.0,
    "TLE_LINE1": "1 59865U 24098H   25315.17158453  .00028640  00000+0  10447-2 0  9993",
    "TLE_LINE2": "2 59865  42.9984 227.0380 0001254 263.6314  96.4394 15.27627082 83725",
    "COMMENT": "Grouped by shell and plane from TLE"
  },
  {
    "OBJECT_NAME": "STARLINK-31952",
    "OBJECT_ID": "24098K",
    "EPOCH": "2025-11-11T03:19:10.217280",
    "MEAN_MOTION": 15.27586857,
    "ECCENTRICITY": 5.51e-05,
    "INCLINATION": 43.0003,
    "RA_OF_ASC_NODE": 227.6505,
    "ARG_OF_PERICENTER": 166.8767,
    "MEAN_ANOMALY": 193.2099,
    "EPHEMERIS_TYPE": 0,
    "CLASSIFICATION_TYPE": "U",
    "NORAD_CAT_ID": 59867,
    "ELEMENT_SET_NO": 999,
    "REV_AT_EPOCH": 8371,
    "BSTAR": 0.0001974,
    "MEAN_MOTION_DOT": 5.175e-05,
    "MEAN_MOTION_DDOT": 0.0,
    "TLE_LINE1": "1 59867U 24098K   25315.13831270  .00005175  00000+0  19740-3 0  9990",
    "TLE_LINE2": "2 59867  43.0003 227.6505 0000551 166.8767 193.2099 15.27586857 83712",
    "COMMENT": "Grouped by shell and plane from TLE"
  }
]